[{"OBJECT_NAME":"HIBARI","OBJECT_ID":"2021-102F","EPOCH":"2026-03-09T16:55:51.090816","MEAN_MOTION":15.29554512,"ECCENTRICITY":0.00120742,"INCLINATION":97.3381,"RA_OF_ASC_NODE":115.826,"ARG_OF_PERICENTER":186.5211,"MEAN_ANOMALY":173.5875,"EPHEMERIS_TYPE":0,"CLASSIFICATION_TYPE":"U","NORAD_CAT_ID":49400,"ELEMENT_SET_NO":999,"REV_AT_EPOCH":23897,"BSTAR":0.00042758039,"MEAN_MOTION_DOT":0.00012206,"MEAN_MOTION_DDOT":0},{"OBJECT_NAME":"STARLINK-33868","OBJECT_ID":"2025-087G","EPOCH":"2026-03-09T15:34:38.033184","MEAN_MOTION":15.30145731,"ECCENTRICITY":0.0001494,"INCLINATION":53.1582,"RA_OF_ASC_NODE":219.7261,"ARG_OF_PERICENTER":65.8785,"MEAN_ANOMALY":294.2371,"EPHEMERIS_TYPE":0,"CLASSIFICATION_TYPE":"U","NORAD_CAT_ID":63703,"ELEMENT_SET_NO":999,"REV_AT_EPOCH":4919,"BSTAR":-0.00042921,"MEAN_MOTION_DOT":-0.00013028,"MEAN_MOTION_DDOT":0}]
